CCSDS_OMM_VERS = 2.0
CREATION_DATE  = 
ORIGINATOR     = 

OBJECT_NAME    = CORAL
OBJECT_ID      = 1998-067YA
CENTER_NAME    = EARTH
REF_FRAME      = TEME
TIME_SYSTEM    = UTC
MEAN_ELEMENT_THEORY = SGP/SGP4

EPOCH          = 2026-04-02T07:55:13.707264
MEAN_MOTION    = 15.58508636
ECCENTRICITY   = .00132941
INCLINATION    = 51.6292
RA_OF_ASC_NODE = 313.2725
ARG_OF_PERICENTER = 262.6844
MEAN_ANOMALY   = 97.2637

EPHEMERIS_TYPE = 0
CLASSIFICATION_TYPE = U
NORAD_CAT_ID   = 67684
ELEMENT_SET_NO = 999
REV_AT_EPOCH   = 847
BSTAR          = .15846798E-2
MEAN_MOTION_DOT = .125323E-2
MEAN_MOTION_DDOT = 0

CCSDS_OMM_VERS = 2.0
CREATION_DATE  = 
ORIGINATOR     = 

OBJECT_NAME    = GXIBA-1
OBJECT_ID      = 1998-067YB
CENTER_NAME    = EARTH
REF_FRAME      = TEME
TIME_SYSTEM    = UTC
MEAN_ELEMENT_THEORY = SGP/SGP4

EPOCH          = 2026-04-02T08:02:09.004416
MEAN_MOTION    = 15.54444471
ECCENTRICITY   = .00122891
INCLINATION    = 51.6311
RA_OF_ASC_NODE = 314.0552
ARG_OF_PERICENTER = 269.6614
MEAN_ANOMALY   = 90.2969

EPHEMERIS_TYPE = 0
CLASSIFICATION_TYPE = U
NORAD_CAT_ID   = 67685
ELEMENT_SET_NO = 999
REV_AT_EPOCH   = 846
BSTAR          = .94793493E-3
MEAN_MOTION_DOT = .63698E-3
MEAN_MOTION_DDOT = 0

CCSDS_OMM_VERS = 2.0
CREATION_DATE  = 
ORIGINATOR     = 

OBJECT_NAME    = UITMSAT-2
OBJECT_ID      = 1998-067YC
CENTER_NAME    = EARTH
REF_FRAME      = TEME
TIME_SYSTEM    = UTC
MEAN_ELEMENT_THEORY = SGP/SGP4

EPOCH          = 2026-04-02T15:19:28.045056
MEAN_MOTION    = 15.55557558
ECCENTRICITY   = .00093777
INCLINATION    = 51.6305
RA_OF_ASC_NODE = 312.3353
ARG_OF_PERICENTER = 244.7057
MEAN_ANOMALY   = 115.2963

EPHEMERIS_TYPE = 0
CLASSIFICATION_TYPE = U
NORAD_CAT_ID   = 67686
ELEMENT_SET_NO = 999
REV_AT_EPOCH   = 851
BSTAR          = .99291359E-3
MEAN_MOTION_DOT = .69503E-3
MEAN_MOTION_DDOT = 0

CCSDS_OMM_VERS = 2.0
CREATION_DATE  = 
ORIGINATOR     = 

OBJECT_NAME    = HMU-SAT2
OBJECT_ID      = 1998-067YD
CENTER_NAME    = EARTH
REF_FRAME      = TEME
TIME_SYSTEM    = UTC
MEAN_ELEMENT_THEORY = SGP/SGP4

EPOCH          = 2026-04-02T00:27:21.531744
MEAN_MOTION    = 15.54142799
ECCENTRICITY   = .00089072
INCLINATION    = 51.6316
RA_OF_ASC_NODE = 315.6984
ARG_OF_PERICENTER = 244.0786
MEAN_ANOMALY   = 115.9287

EPHEMERIS_TYPE = 0
CLASSIFICATION_TYPE = U
NORAD_CAT_ID   = 67687
ELEMENT_SET_NO = 999
REV_AT_EPOCH   = 833
BSTAR          = .72718698E-3
MEAN_MOTION_DOT = .48045E-3
MEAN_MOTION_DDOT = 0

CCSDS_OMM_VERS = 2.0
CREATION_DATE  = 
ORIGINATOR     = 

OBJECT_NAME    = LEOPARD
OBJECT_ID      = 1998-067YE
CENTER_NAME    = EARTH
REF_FRAME      = TEME
TIME_SYSTEM    = UTC
MEAN_ELEMENT_THEORY = SGP/SGP4

EPOCH          = 2026-04-02T07:48:25.086240
MEAN_MOTION    = 15.55023606
ECCENTRICITY   = .00090674
INCLINATION    = 51.6308
RA_OF_ASC_NODE = 313.9945
ARG_OF_PERICENTER = 243.2644
MEAN_ANOMALY   = 116.7419

EPHEMERIS_TYPE = 0
CLASSIFICATION_TYPE = U
NORAD_CAT_ID   = 67688
ELEMENT_SET_NO = 999
REV_AT_EPOCH   = 838
BSTAR          = .10507024E-2
MEAN_MOTION_DOT = .72153E-3
MEAN_MOTION_DDOT = 0

CCSDS_OMM_VERS = 2.0
CREATION_DATE  = 
ORIGINATOR     = 

OBJECT_NAME    = CREW DRAGON 12
OBJECT_ID      = 2026-031A
CENTER_NAME    = EARTH
REF_FRAME      = TEME
TIME_SYSTEM    = UTC
MEAN_ELEMENT_THEORY = SGP/SGP4

EPOCH          = 2026-04-02T20:14:17.913696
MEAN_MOTION    = 15.48729122
ECCENTRICITY   = .0006236
INCLINATION    = 51.6328
RA_OF_ASC_NODE = 312.9475
ARG_OF_PERICENTER = 264.7845
MEAN_ANOMALY   = 95.2432

EPHEMERIS_TYPE = 0
CLASSIFICATION_TYPE = U
NORAD_CAT_ID   = 67796
ELEMENT_SET_NO = 999
REV_AT_EPOCH   = 56004
BSTAR          = .22447E-3
MEAN_MOTION_DOT = .11825E-3
MEAN_MOTION_DDOT = 0

CCSDS_OMM_VERS = 2.0
CREATION_DATE  = 
ORIGINATOR     = 

OBJECT_NAME    = PROGRESS-MS 33
OBJECT_ID      = 2026-058A
CENTER_NAME    = EARTH
REF_FRAME      = TEME
TIME_SYSTEM    = UTC
MEAN_ELEMENT_THEORY = SGP/SGP4

EPOCH          = 2026-04-02T20:14:17.913696
MEAN_MOTION    = 15.48729122
ECCENTRICITY   = .0006236
INCLINATION    = 51.6328
RA_OF_ASC_NODE = 312.9475
ARG_OF_PERICENTER = 264.7845
MEAN_ANOMALY   = 95.2432

EPHEMERIS_TYPE = 0
CLASSIFICATION_TYPE = U
NORAD_CAT_ID   = 68319
ELEMENT_SET_NO = 999
REV_AT_EPOCH   = 155
BSTAR          = .22447E-3
MEAN_MOTION_DOT = .11825E-3
MEAN_MOTION_DDOT = 0

